{
  "type": "FeatureCollection",
  "features": [
    {
      "type": "Feature",
      "properties": {
        "name": "Ecuador continental",
        "iso": "EC"
      },
      "geometry": {
        "type": "Polygon",
        "coordinates": [
          [
            [
              1.5,
              -78.9
            ],
            [
              0.9,
              -79.6
            ],
            [
              0.3,
              -80.1
            ],
            [
              -0.3,
              -80.4
            ],
            [
              -1.0,
              -80.7
            ],
            [
              -1.8,
              -80.7
            ],
            [
              -2.2,
              -80.6
            ],
            [
              -3.0,
              -80.2
            ],
            [
              -3.4,
              -80.1
            ],
            [
              -4.0,
              -80.0
            ],
            [
              -4.5,
              -79.5
            ],
            [
              -5.0,
              -79.2
            ],
            [
              -4.5,
              -78.7
            ],
            [
              -3.5,
              -78.5
            ],
            [
              -2.5,
              -78.0
            ],
            [
              -2.0,
              -77.5
            ],
            [
              -1.5,
              -77.0
            ],
            [
              -1.0,
              -76.5
            ],
            [
              -0.5,
              -76.0
            ],
            [
              0.0,
              -75.5
            ],
            [
              0.5,
              -75.0
            ],
            [
              0.8,
              -75.2
            ],
            [
              1.0,
              -75.8
            ],
            [
              1.3,
              -76.5
            ],
            [
              1.5,
              -77.0
            ],
            [
              1.5,
              -77.5
            ],
            [
              1.5,
              -78.5
            ],
            [
              1.5,
              -78.9
            ]
          ]
        ]
      }
    },
    {
      "type": "Feature",
      "properties": {
        "name": "Gal\u00e1pagos",
        "iso": "EC"
      },
      "geometry": {
        "type": "MultiPolygon",
        "coordinates": [
          [
            [
              [
                -0.5,
                -91.5
              ],
              [
                -0.8,
                -91.0
              ],
              [
                -1.2,
                -90.8
              ],
              [
                -1.5,
                -90.9
              ],
              [
                -1.6,
                -91.2
              ],
              [
                -1.4,
                -91.6
              ],
              [
                -1.0,
                -91.7
              ],
              [
                -0.6,
                -91.6
              ]
            ]
          ],
          [
            [
              [
                -0.4,
                -90.4
              ],
              [
                -0.5,
                -90.2
              ],
              [
                -0.7,
                -90.2
              ],
              [
                -0.8,
                -90.4
              ],
              [
                -0.7,
                -90.5
              ],
              [
                -0.4,
                -90.5
              ]
            ]
          ],
          [
            [
              [
                -0.7,
                -89.4
              ],
              [
                -0.9,
                -89.3
              ],
              [
                -1.0,
                -89.4
              ],
              [
                -1.0,
                -89.6
              ],
              [
                -0.8,
                -89.7
              ],
              [
                -0.7,
                -89.6
              ]
            ]
          ],
          [
            [
              [
                -1.2,
                -90.4
              ],
              [
                -1.4,
                -90.3
              ],
              [
                -1.5,
                -90.4
              ],
              [
                -1.4,
                -90.5
              ],
              [
                -1.2,
                -90.5
              ]
            ]
          ]
        ]
      }
    }
  ]
}