{"type": "FeatureCollection", "features": [{"type": "Feature", "properties": {"name": "African/Antarctic", "a": "AF", "b": "AN"}, "geometry": {"type": "LineString", "coordinates": [[-0.4379, -54.8518], [2.35975, -54.0374], [4.82661, -54.1616], [7.23729, -54.1012], [7.77235, -54.396]]}}, {"type": "Feature", "properties": {"name": "African/Antarctic", "a": "AF", "b": "AN"}, "geometry": {"type": "LineString", "coordinates": [[7.77235, -54.396], [10.5424, -53.0655], [13.2042, -52.141], [15.8223, -51.787], [19.9938, -52.8167], [23.8862, -53.3086], [24.8726, -53.3453]]}}, {"type": "Feature", "properties": {"name": "Antarctic/African", "a": "AN", "b": "AF"}, "geometry": {"type": "LineString", "coordinates": [[32.1258, -46.9998], [30.7046, -49.0106], [28.9688, -51.1373], [27.4795, -52.7708], [26.3382, -53.065], [25.1797, -53.4441], [24.8726, -53.3453]]}}, {"type": "Feature", "properties": {"name": "Somali/Antarctic", "a": "SO", "b": "AN"}, "geometry": {"type": "LineString", "coordinates": [[32.1258, -46.9998], [33.9824, -46.0812], [34.8682, -45.4657], [36.3029, -44.9665], [38.0827, -44.6188]]}}, {"type": "Feature", "properties": {"name": "Somali/Antarctic", "a": "SO", "b": "AN"}, "geometry": {"type": "LineString", "coordinates": [[38.0827, -44.6188], [39.4588, -43.2862], [42.4686, -42.7299], [44.0092, -40.915], [45.3318, -40.1085], [48.0234, -38.6507], [49.9451, -37.7902], [52.2827, -37.4322], [53.4706, -35.5167], [55.6987, -34.235], [57.1223, -32.3028], [59.1667, -31.0497], [60.7624, -29.999], [62.1619, -28.8114], [63.1942, -28.0214], [65.3475, -27.5141], [67.424, -26.8699], [68.5979, -26.1206], [69.4603, -25.7822], [69.9595, -25.6512]]}}, {"type": "Feature", "properties": {"name": "Somali/Indian", "a": "SO", "b": "IN"}, "geometry": {"type": "LineString", "coordinates": [[58.2392, 12.7455], [57.6891, 13.5225], [56.9688, 13.9372], [56.2652, 14.6232]]}}, {"type": "Feature", "properties": {"name": "Australian/Somali", "a": "AU", "b": "SO"}, "geometry": {"type": "LineString", "coordinates": [[68.2738, -6.8109], [67.5648, -8.8814], [66.7874, -10.762], [66.3692, -12.8327], [66.4883, -14.698], [67.4105, -16.6587], [65.2639, -18.4432], [67.0404, -20.2181], [68.2125, -20.2907], [68.7967, -22.387], [69.6804, -24.3686], [69.9595, -25.6512]]}}, {"type": "Feature", "properties": {"name": "Eurasian/African", "a": "EU", "b": "AF"}, "geometry": {"type": "LineString", "coordinates": [[-29.7698, 39.3996], [-29.1472, 39.2937], [-28.8946, 39.412], [-28.666, 39.179], [-28.4204, 39.0927], [-28.2155, 38.9524], [-27.7223, 38.9416], [-27.2394, 38.7796], [-27.0289, 38.4911], [-26.718, 38.4202], [-26.4166, 38.1493], [-26.0432, 37.9355], [-25.6332, 37.7225], [-25.2671, 37.7692], [-24.8451, 37.5519], [-24.7022, 37.3519], [-24.5541, 37.0172], [-24.2554, 36.781], [-22.216, 36.7543], [-18.618, 37.307], [-15.3865, 37.2117], [-12.1424, 36.3276], [-9.54521, 36.4296], [-6.06375, 34.7839], [-5.07226, 34.0783], [-3.29595, 35.8577], [-0.747757, 35.7757], [2.37988, 36.5942], [6.78405, 37.3219]]}}, {"type": "Feature", "properties": {"name": "Eurasian/African", "a": "EU", "b": "AF"}, "geometry": {"type": "LineString", "coordinates": [[6.78405, 37.3219], [8.94209, 38.2117], [10.3732, 38.685]]}}, {"type": "Feature", "properties": {"name": "Eurasian/African", "a": "EU", "b": "AF"}, "geometry": {"type": "LineString", "coordinates": [[10.3732, 38.685], [11.6589, 39.0327], [13.3137, 38.6105], [14.5145, 38.7653]]}}, {"type": "Feature", "properties": {"name": "Eurasian/African", "a": "EU", "b": "AF"}, "geometry": {"type": "LineString", "coordinates": [[14.5145, 38.7653], [15.4207, 37.8857], [15.3751, 37.3401]]}}, {"type": "Feature", "properties": {"name": "Eurasian/African", "a": "EU", "b": "AF"}, "geometry": {"type": "LineString", "coordinates": [[15.3751, 37.3401], [17.4195, 37.7008], [18.0857, 38.7941], [17.9599, 39.1696]]}}, {"type": "Feature", "properties": {"name": "Eurasian/African", "a": "EU", "b": "AF"}, "geometry": {"type": "LineString", "coordinates": [[17.9599, 39.1696], [20.0, 37.9075]]}}, {"type": "Feature", "properties": {"name": "Indian/Somali", "a": "IN", "b": "SO"}, "geometry": {"type": "LineString", "coordinates": [[58.2392, 12.7455], [57.1375, 10.4336], [57.4906, 9.94156], [58.4302, 8.86262], [59.3092, 7.76825], [60.6701, 6.30983], [62.4568, 4.52272], [63.8192, 3.48212], [65.489, 3.29907], [66.3328, 1.85871], [67.1594, 0.337135], [67.3671, -1.43996], [68.2702, -3.35132], [68.6069, -5.47188], [68.2738, -6.8109]]}}, {"type": "Feature", "properties": {"name": "North American/African", "a": "NA", "b": "AF"}, "geometry": {"type": "LineString", "coordinates": [[-46.7658, 15.4506], [-46.4072, 17.5663], [-46.1844, 18.9319], [-45.557, 20.5958], [-45.1574, 22.3898], [-46.4758, 23.9174], [-45.296, 25.6367], [-44.687, 26.7668], [-43.9423, 28.1049], [-42.7286, 30.0697], [-40.71, 31.8173], [-39.3993, 33.7676], [-37.3364, 34.1362], [-36.6231, 34.6929], [-34.3354, 35.616], [-33.5947, 36.7422], [-32.7077, 37.0333], [-31.3713, 37.7049], [-29.9091, 39.3871], [-29.7698, 39.3996]]}}, {"type": "Feature", "properties": {"name": "African/South American", "a": "AF", "b": "SA"}, "geometry": {"type": "LineString", "coordinates": [[-46.7658, 15.4506], [-45.0614, 13.9917], [-43.8845, 12.0854], [-42.5035, 10.8602], [-40.8615, 9.97269], [-40.1408, 8.21537], [-38.2065, 7.70334], [-36.0469, 7.02322], [-33.6203, 6.10421], [-32.8617, 3.96038], [-30.8868, 3.25477], [-29.2096, 0.848907], [-26.2887, 0.498136], [-24.0507, -1.03387], [-21.0168, -0.588493], [-17.8889, 0.030609], [-16.0372, -0.519631], [-13.9087, -1.10824], [-11.9989, -2.40025], [-12.0968, -4.10303], [-11.5161, -5.41504], [-11.9933, -6.96082], [-13.1911, -8.37401], [-13.1736, -10.6231], [-15.0058, -11.8853], [-14.4102, -13.2181], [-13.4352, -14.8494], [-14.3024, -16.4327], [-13.5189, -17.893], [-12.3703, -19.3409], [-11.7632, -21.1759], [-12.3643, -22.2671], [-13.6637, -23.5442], [-13.6632, -25.648], [-13.2716, -28.321], [-12.5326, -28.9409]]}}, {"type": "Feature", "properties": {"name": "African/South American", "a": "AF", "b": "SA"}, "geometry": {"type": "LineString", "coordinates": [[-12.5326, -28.9409], [-13.5428, -30.4913], [-13.883, -32.2745], [-14.5151, -34.0434], [-16.0274, -35.3431], [-17.4404, -36.5623], [-17.0505, -38.4467], [-15.9224, -39.6807], [-16.7436, -41.1763], [-16.4299, -42.8677]]}}, {"type": "Feature", "properties": {"name": "African/South American", "a": "AF", "b": "SA"}, "geometry": {"type": "LineString", "coordinates": [[-16.4299, -42.8677], [-15.7603, -45.0279], [-13.5715, -46.6878], [-10.4834, -47.1256], [-8.92248, -49.0912], [-7.43284, -50.0013], [-4.71279, -51.1333], [-2.91952, -53.5469], [-0.4379, -54.8518]]}}, {"type": "Feature", "properties": {"name": "Australian/Antarctic", "a": "AU", "b": "AN"}, "geometry": {"type": "LineString", "coordinates": [[69.9595, -25.6512], [71.58, -26.4544], [72.9202, -27.5728], [74.4058, -28.3173], [75.5539, -29.8394], [76.2045, -30.9057], [77.2334, -32.4595], [78.4879, -34.8067], [79.1839, -36.5109], [78.5293, -38.6592], [77.8245, -40.326], [80.4635, -41.5119], [83.8533, -42.5506], [85.8592, -40.8341], [88.4884, -41.6859], [91.142, -42.9534], [93.9044, -44.1571], [96.6975, -45.4707], [97.7072, -47.2648], [100.817, -47.4654], [103.959, -48.4093], [106.692, -48.8414], [109.351, -49.5235]]}}, {"type": "Feature", "properties": {"name": "Australian/Antarctic", "a": "AU", "b": "AN"}, "geometry": {"type": "LineString", "coordinates": [[109.351, -49.5235], [111.666, -50.0838], [115.988, -49.8517], [118.547, -49.8017], [121.555, -49.0056], [122.797, -49.7286], [124.213, -48.8476], [125.896, -49.7171], [127.313, -48.7639], [129.412, -50.348], [133.465, -50.3055], [136.946, -50.2204], [139.733, -51.1739], [140.584, -53.5044], [144.282, -54.7985], [146.881, -54.6953]]}}, {"type": "Feature", "properties": {"name": "Australian/Antarctic", "a": "AU", "b": "AN"}, "geometry": {"type": "LineString", "coordinates": [[146.881, -54.6953], [147.721, -57.0884], [149.398, -58.5518], [151.29, -60.4126], [155.701, -62.1738], [161.228, -61.4567]]}}, {"type": "Feature", "properties": {"name": "Antarctic/Nazca", "a": "AN", "b": "NZ"}, "geometry": {"type": "LineString", "coordinates": [[-76.0062, -45.6585], [-78.2065, -44.4111], [-81.9346, -44.9641], [-83.4538, -42.873], [-85.1484, -41.2533], [-89.2496, -41.3781], [-91.4756, -40.7319], [-92.3397, -38.9184], [-94.1298, -37.0006], [-97.4017, -36.2936], [-101.926, -35.9274], [-105.391, -35.5236], [-108.797, -35.1319], [-109.259, -34.5446]]}}, {"type": "Feature", "properties": {"name": "Pacific/Antarctic", "a": "PA", "b": "AN"}, "geometry": {"type": "LineString", "coordinates": [[-180.0, -65.749397], [-175.729, -65.1825], [-171.3, -64.3564], [-167.513, -63.106], [-163.001, -62.9675], [-158.703, -63.0044], [-155.254, -62.4327], [-152.119, -60.1575], [-148.276, -58.13], [-145.412, -56.2277], [-141.211, -56.8392], [-139.578, -55.6146], [-137.522, -53.6878], [-132.87, -54.2371], [-128.624, -55.3215], [-124.262, -55.5873], [-121.228, -55.2189], [-118.037, -53.6908], [-118.12, -51.7718], [-116.388, -49.3675], [-113.528, -48.841], [-112.426, -45.8544], [-111.971, -43.7738], [-110.832, -41.3555], [-111.27, -38.9785], [-110.471, -36.4102], [-110.877, -35.3191], [-110.827, -35.0908]]}}, {"type": "Feature", "properties": {"name": "Pacific/Antarctic", "a": "PA", "b": "AN"}, "geometry": {"type": "LineString", "coordinates": [[161.228, -61.4567], [164.275, -62.3219], [166.62, -63.0869], [169.238, -62.4461], [171.64, -63.8072], [174.814, -64.3149], [176.819, -64.506], [179.381, -65.4773], [180.0, -65.749397]]}}, {"type": "Feature", "properties": {"name": "Pacific/Antarctic", "a": "PA", "b": "AN"}, "geometry": {"type": "LineString", "coordinates": [[-180.0, -65.749397], [-175.729, -65.1825], [-171.3, -64.3564], [-167.513, -63.106], [-163.001, -62.9675], [-158.703, -63.0044], [-155.254, -62.4327], [-152.119, -60.1575], [-148.276, -58.13], [-145.412, -56.2277], [-141.211, -56.8392], [-139.578, -55.6146], [-137.522, -53.6878], [-132.87, -54.2371], [-128.624, -55.3215], [-124.262, -55.5873], [-121.228, -55.2189], [-118.037, -53.6908], [-118.12, -51.7718], [-116.388, -49.3675], [-113.528, -48.841], [-112.426, -45.8544], [-111.971, -43.7738], [-110.832, -41.3555], [-111.27, -38.9785], [-110.471, -36.4102], [-110.877, -35.3191], [-110.827, -35.0908]]}}, {"type": "Feature", "properties": {"name": "Antarctic/South American", "a": "AN", "b": "SA"}, "geometry": {"type": "LineString", "coordinates": [[-0.4379, -54.8518], [-2.89625, -55.7072], [-4.69342, -56.5916], [-6.53815, -57.27], [-8.60685, -57.9888], [-15.0689, -58.3904], [-16.9169, -59.0982], [-18.5472, -59.9376], [-21.7186, -60.7441], [-26.0709, -60.391]]}}, {"type": "Feature", "properties": {"name": "Antarctic/South American", "a": "AN", "b": "SA"}, "geometry": {"type": "LineString", "coordinates": [[-76.4833, -52.0684], [-76.9255, -48.5065], [-76.0062, -45.6585]]}}, {"type": "Feature", "properties": {"name": "Arabian/Eurasian", "a": "AR", "b": "EU"}, "geometry": {"type": "LineString", "coordinates": [[65.0282, 24.3824], [61.3646, 24.122], [57.8316, 24.4427], [56.8753, 27.3007], [53.2406, 27.1213], [51.0573, 29.578], [49.036, 31.6214], [46.6076, 32.8874], [45.0, 34.5906]]}}, {"type": "Feature", "properties": {"name": "Sunda/Australian", "a": "SU", "b": "AU"}, "geometry": {"type": "LineString", "coordinates": [[104.576, -8.16657], [106.827, -9.66517], [109.626, -10.3713], [112.17, -10.652], [115.013, -11.1505], [118.236, -11.3869], [120.886, -11.4925]]}}, {"type": "Feature", "properties": {"name": "Timor/Australian", "a": "TI", "b": "AU"}, "geometry": {"type": "LineString", "coordinates": [[120.886, -11.4925], [123.96, -10.7081], [126.333, -9.59637], [129.106, -9.02027], [131.415, -8.26747]]}}, {"type": "Feature", "properties": {"name": "Timor/Australian", "a": "TI", "b": "AU"}, "geometry": {"type": "LineString", "coordinates": [[131.415, -8.26747], [132.689, -6.68099]]}}, {"type": "Feature", "properties": {"name": "Pacific/Australian", "a": "PA", "b": "AU"}, "geometry": {"type": "LineString", "coordinates": [[159.803, -60.0055], [161.228, -61.4567]]}}, {"type": "Feature", "properties": {"name": "Australian/Pacific", "a": "AU", "b": "PA"}, "geometry": {"type": "LineString", "coordinates": [[166.951, -44.9871], [168.488, -44.166], [168.77, -44.0215]]}}, {"type": "Feature", "properties": {"name": "Australian/Pacific", "a": "AU", "b": "PA"}, "geometry": {"type": "LineString", "coordinates": [[168.77, -44.0215], [170.995, -42.9318], [173.126, -42.3917], [175.503, -42.0593]]}}, {"type": "Feature", "properties": {"name": "Kermadec/Pacific", "a": "KE", "b": "PA"}, "geometry": {"type": "LineString", "coordinates": [[-180.0, -37.160662], [-178.539, -34.7058], [-177.81, -33.1908], [-177.108, -31.4517], [-176.153, -29.4691], [-175.545, -27.318], [-175.297, -25.4257], [-174.985, -23.7499]]}}, {"type": "Feature", "properties": {"name": "Kermadec/Pacific", "a": "KE", "b": "PA"}, "geometry": {"type": "LineString", "coordinates": [[175.503, -42.0593], [178.015, -41.1879], [179.125, -39.2296], [180.0, -37.160662]]}}, {"type": "Feature", "properties": {"name": "Kermadec/Pacific", "a": "KE", "b": "PA"}, "geometry": {"type": "LineString", "coordinates": [[-180.0, -37.160662], [-178.539, -34.7058], [-177.81, -33.1908], [-177.108, -31.4517], [-176.153, -29.4691], [-175.545, -27.318], [-175.297, -25.4257], [-174.985, -23.7499]]}}, {"type": "Feature", "properties": {"name": "Tonga/Pacific", "a": "TO", "b": "PA"}, "geometry": {"type": "LineString", "coordinates": [[-174.985, -23.7499], [-174.139, -22.2898], [-173.403, -20.5862], [-172.786, -18.7769], [-172.374, -17.2706], [-172.331, -15.732], [-172.939, -14.8669], [-173.407, -14.584]]}}, {"type": "Feature", "properties": {"name": "Kermadec/Australian", "a": "KE", "b": "AU"}, "geometry": {"type": "LineString", "coordinates": [[-177.419, -24.1051], [-178.017, -26.7672], [-179.074, -29.7924], [-180.0, -32.30415]]}}, {"type": "Feature", "properties": {"name": "Kermadec/Australian", "a": "KE", "b": "AU"}, "geometry": {"type": "LineString", "coordinates": [[180.0, -32.30415], [178.681, -34.7863], [176.77, -37.485], [175.609, -39.2297], [175.012, -40.9786], [175.503, -42.0593]]}}, {"type": "Feature", "properties": {"name": "Kermadec/Australian", "a": "KE", "b": "AU"}, "geometry": {"type": "LineString", "coordinates": [[-177.419, -24.1051], [-178.017, -26.7672], [-179.074, -29.7924], [-180.0, -32.30415]]}}, {"type": "Feature", "properties": {"name": "Pacific/Niuafo'ou", "a": "PA", "b": "NI"}, "geometry": {"type": "LineString", "coordinates": [[-176.346, -14.634], [-173.836, -14.5338]]}}, {"type": "Feature", "properties": {"name": "Pacific/Tonga", "a": "PA", "b": "TO"}, "geometry": {"type": "LineString", "coordinates": [[-173.836, -14.5338], [-173.407, -14.584]]}}, {"type": "Feature", "properties": {"name": "Woodlark/Molucca Sea", "a": "WL", "b": "MO"}, "geometry": {"type": "LineString", "coordinates": [[138.972, -1.6075], [140.328, -4.04505], [140.798, -5.10959]]}}, {"type": "Feature", "properties": {"name": "Woodlark/Australian", "a": "WL", "b": "AU"}, "geometry": {"type": "LineString", "coordinates": [[140.798, -5.10959], [143.569, -6.55817], [146.398, -8.10254], [146.954, -8.59828]]}}, {"type": "Feature", "properties": {"name": "South Bismarck/South Sandwich", "a": "SB", "b": "SS"}, "geometry": {"type": "LineString", "coordinates": [[148.587, -7.39451], [151.148, -6.44252], [153.107, -5.74072], [153.93, -6.265]]}}, {"type": "Feature", "properties": {"name": "North Bismarck/South Sandwich", "a": "NB", "b": "SS"}, "geometry": {"type": "LineString", "coordinates": [[153.93, -6.265], [154.927, -7.29284]]}}, {"type": "Feature", "properties": {"name": "Pacific/South Sandwich", "a": "PA", "b": "SS"}, "geometry": {"type": "LineString", "coordinates": [[154.927, -7.29284], [155.454, -7.48875]]}}, {"type": "Feature", "properties": {"name": "Pacific/Woodlark", "a": "PA", "b": "WL"}, "geometry": {"type": "LineString", "coordinates": [[155.454, -7.48875], [156.296, -8.17405]]}}, {"type": "Feature", "properties": {"name": "South Sandwich/Woodlark", "a": "SS", "b": "WL"}, "geometry": {"type": "LineString", "coordinates": [[148.587, -7.39451], [149.609, -7.62419], [151.307, -7.85219], [152.959, -8.54419], [153.255, -9.18615]]}}, {"type": "Feature", "properties": {"name": "Australian/Woodlark", "a": "AU", "b": "WL"}, "geometry": {"type": "LineString", "coordinates": [[151.654, -9.76005], [149.676, -9.80087], [146.954, -8.59828]]}}, {"type": "Feature", "properties": {"name": "Pacific/Australian", "a": "PA", "b": "AU"}, "geometry": {"type": "LineString", "coordinates": [[156.296, -8.17405], [156.935, -8.64158], [157.419, -8.9002], [157.916, -9.15863], [158.388, -9.44177], [158.85, -9.58499], [159.17, -9.7648], [159.503, -10.0206], [159.837, -10.2507], [160.21, -10.4681], [160.622, -10.7233], [160.996, -11.0287], [161.384, -11.2321], [161.901, -11.3968], [162.484, -11.4208], [163.311, -11.2647], [164.151, -11.1443], [164.758, -11.1637], [165.514, -11.6864], [165.894, -12.744], [166.132, -13.6763], [166.154, -13.7794]]}}, {"type": "Feature", "properties": {"name": "New Hebrides/Australian", "a": "NH", "b": "AU"}, "geometry": {"type": "LineString", "coordinates": [[166.154, -13.7794], [166.252, -14.4205], [166.228, -15.1296], [166.227, -15.6737], [166.45, -16.1874], [166.728, -16.7372], [167.155, -17.3074], [167.32, -17.9219], [167.486, -18.4855], [167.727, -19.2356], [168.075, -19.8926], [168.396, -20.4737], [168.776, -21.1015], [169.215, -21.725], [169.577, -22.1236], [170.109, -22.5873], [170.66, -22.8838], [171.162, -23.0299], [171.703, -23.1464], [172.278, -23.1707], [172.439, -23.1781]]}}, {"type": "Feature", "properties": {"name": "Caribbean/North American", "a": "CA", "b": "NA"}, "geometry": {"type": "LineString", "coordinates": [[-61.5534, 18.9589], [-64.3436, 19.7794], [-67.5313, 19.7213], [-70.6265, 20.0022], [-73.9942, 20.1659], [-76.9834, 19.7465], [-80.2095, 19.1597], [-81.6248, 17.8016], [-84.9097, 17.1066], [-88.351, 15.9583], [-90.426, 13.9172], [-90.898, 12.5837]]}}, {"type": "Feature", "properties": {"name": "Caribbean/Cocos", "a": "CA", "b": "CO"}, "geometry": {"type": "LineString", "coordinates": [[-90.898, 12.5837], [-87.8901, 11.3967], [-86.648, 10.235]]}}, {"type": "Feature", "properties": {"name": "Caribbean/South American", "a": "CA", "b": "SA"}, "geometry": {"type": "LineString", "coordinates": [[-63.8782, 10.5316], [-60.9266, 10.3949], [-58.1571, 10.1597]]}}, {"type": "Feature", "properties": {"name": "Caribbean/South American", "a": "CA", "b": "SA"}, "geometry": {"type": "LineString", "coordinates": [[-58.1571, 10.1597], [-57.568, 13.1016], [-58.5263, 15.2839], [-59.0883, 16.9121], [-60.5338, 18.5131], [-61.5534, 18.9589]]}}, {"type": "Feature", "properties": {"name": "Cocos/North American", "a": "CO", "b": "NA"}, "geometry": {"type": "LineString", "coordinates": [[-90.898, 12.5837], [-92.5992, 13.498], [-94.5422, 14.4786], [-96.219, 15.3609], [-98.5878, 15.7715], [-100.867, 16.6363], [-104.191, 18.1383], [-105.247, 18.7619]]}}, {"type": "Feature", "properties": {"name": "Cocos/Pacific", "a": "CO", "b": "PA"}, "geometry": {"type": "LineString", "coordinates": [[-105.586, 17.8808], [-105.32, 15.1076], [-103.927, 12.5868], [-103.628, 10.2746], [-104.229, 8.34001], [-102.558, 6.35535], [-102.199, 3.45816], [-102.219, 3.23869]]}}, {"type": "Feature", "properties": {"name": "Cocos/Nazca", "a": "CO", "b": "NZ"}, "geometry": {"type": "LineString", "coordinates": [[-99.7389, 2.26882], [-97.8463, 2.07656], [-96.1202, 2.23785], [-92.9279, 2.29988], [-91.5608, 1.81659], [-88.0245, 0.977144], [-84.5759, 1.59812], [-83.3779, 3.16485], [-82.875, 5.05417], [-82.8748, 7.36639]]}}, {"type": "Feature", "properties": {"name": "Eurasian/Indian", "a": "EU", "b": "IN"}, "geometry": {"type": "LineString", "coordinates": [[65.0282, 24.3824], [67.2681, 25.9839], [67.2397, 28.5731], [68.6795, 29.209], [70.258, 31.0057], [71.392, 33.4768], [72.4591, 34.6822]]}}, {"type": "Feature", "properties": {"name": "Eurasian/Indian", "a": "EU", "b": "IN"}, "geometry": {"type": "LineString", "coordinates": [[72.4591, 34.6822], [75.6749, 32.1894], [78.0762, 30.2261], [80.2265, 29.093], [82.9354, 27.8815], [86.2515, 27.0946], [88.32, 26.885], [91.7812, 27.0329], [94.8287, 27.9182], [97.3484, 28.0826]]}}, {"type": "Feature", "properties": {"name": "North American/Eurasian", "a": "NA", "b": "EU"}, "geometry": {"type": "LineString", "coordinates": [[125.679, 78.1326], [128.519, 75.4945], [132.483, 72.6946], [135.962, 70.5295], [139.381, 67.9097], [144.344, 65.8035], [144.932, 65.2865]]}}, {"type": "Feature", "properties": {"name": "North American/Eurasian", "a": "NA", "b": "EU"}, "geometry": {"type": "LineString", "coordinates": [[-15.7156, 69.5499], [-14.2367, 70.5174], [-12.2549, 70.563], [-12.3591, 71.2522], [-9.39339, 71.4561], [-5.91711, 71.4646], [-4.07245, 71.4905], [-0.975025, 71.8151], [2.78103, 72.4331], [6.05514, 73.0188], [8.15023, 73.4272], [9.03691, 73.7585], [9.13259, 74.3772], [8.2122, 75.1882], [7.51523, 76.1167], [7.62226, 76.9692], [7.82691, 78.0903], [3.85706, 78.95], [2.37761, 79.7797], [-1.76559, 80.3085], [-2.77949, 80.9929], [-3.90911, 81.6203], [-5.00975, 82.5194], [-4.14804, 83.4296], [0.404991, 84.1017], [4.03467, 84.5969], [8.93766, 85.0094], [14.6662, 85.3797], [23.347, 85.8174], [30.9721, 85.9083], [43.4795, 86.4958], [54.5614, 86.7459], [66.301, 86.6065], [75.0293, 85.9885], [84.8021, 85.4998], [94.1554, 85.1545], [102.918, 84.6639], [108.939, 84.1936], [113.723, 83.5124], [117.171, 82.5394], [121.898, 80.6434], [125.679, 78.1326]]}}, {"type": "Feature", "properties": {"name": "North American/Eurasian", "a": "NA", "b": "EU"}, "geometry": {"type": "LineString", "coordinates": [[-29.7698, 39.3996], [-29.6565, 40.1068], [-29.577, 40.5495], [-29.256, 40.9847], [-29.2452, 41.52], [-29.242, 42.0831], [-29.3918, 42.4133], [-29.3715, 42.724], [-29.1736, 43.0796], [-28.8405, 43.6981], [-28.4827, 44.0229], [-28.32, 44.3067], [-28.1438, 44.8116], [-28.1146, 45.0296], [-27.9857, 45.2151], [-27.9382, 45.4296], [-27.877, 45.5362], [-27.7394, 45.8782], [-27.5847, 46.0719], [-27.4868, 46.356], [-27.3775, 46.7568], [-27.4407, 47.2047], [-27.4429, 47.5219], [-27.6218, 47.8861], [-27.7306, 48.421], [-28.0353, 48.6885], [-28.3174, 49.1611], [-28.5446, 49.583], [-28.8952, 49.8148], [-29.1265, 50.1954], [-29.5368, 50.4995], [-29.9085, 50.8605], [-29.9961, 51.4236], [-30.0262, 52.0297], [-31.2527, 52.2628], [-32.0535, 52.516], [-33.3354, 52.6281], [-34.8837, 52.7036], [-35.1837, 53.1336], [-35.2457, 53.5121], [-35.2012, 54.1105], [-35.4123, 54.5161], [-35.3386, 54.9959], [-34.9006, 55.7738], [-34.5104, 56.2101], [-34.3214, 56.5766], [-34.0035, 56.8274], [-33.5662, 57.001], [-33.2031, 57.2849], [-32.8065, 57.6422], [-32.2805, 57.9979], [-31.7451, 58.4683], [-31.0392, 58.8923], [-30.3055, 59.3897], [-29.5075, 59.9692], [-29.3717, 60.0827]]}}, {"type": "Feature", "properties": {"name": "Pacific/Okhotsk", "a": "PA", "b": "OK"}, "geometry": {"type": "LineString", "coordinates": [[144.454, 40.847], [144.254, 39.9281], [144.119, 38.9086], [143.888, 37.9281], [143.408, 36.8604], [142.761, 36.1878], [142.325, 35.5027], [141.992, 34.6663], [141.883, 34.2127]]}}, {"type": "Feature", "properties": {"name": "Pacific/Juan de Fuca", "a": "PA", "b": "JF"}, "geometry": {"type": "LineString", "coordinates": [[-124.742, 40.3134], [-127.579, 40.5385], [-127.401, 41.6405], [-128.528, 43.8176], [-130.187, 45.414], [-129.917, 46.2291], [-129.19, 47.8354], [-130.501, 49.4794], [-130.254, 50.4647], [-130.85, 51.6121]]}}, {"type": "Feature", "properties": {"name": "Juan de Fuca/North American", "a": "JF", "b": "NA"}, "geometry": {"type": "LineString", "coordinates": [[-124.742, 40.3134], [-125.309, 41.6522], [-125.209, 42.3588], [-125.343, 43.1426], [-125.429, 44.0023], [-125.434, 44.7254], [-125.773, 46.295], [-126.486, 47.9956], [-127.818, 49.0802], [-128.719, 50.3103], [-130.212, 51.2777], [-130.85, 51.6121]]}}, {"type": "Feature", "properties": {"name": "Okhotsk/Pacific", "a": "OK", "b": "PA"}, "geometry": {"type": "LineString", "coordinates": [[144.454, 40.847], [147.345, 42.6851], [151.419, 44.704], [154.664, 46.8526], [157.568, 49.1072], [160.599, 51.4877], [163.282, 54.3468], [164.066, 55.2092]]}}, {"type": "Feature", "properties": {"name": "North American/Pacific", "a": "NA", "b": "PA"}, "geometry": {"type": "LineString", "coordinates": [[-180.0, 50.50297], [-176.223, 50.5883], [-172.484, 51.0693], [-168.972, 51.74], [-164.665, 52.8183], [-160.91, 53.6209], [-156.138, 54.5272], [-151.218, 56.3092], [-147.449, 57.8319], [-145.756, 59.2735]]}}, {"type": "Feature", "properties": {"name": "North American/Pacific", "a": "NA", "b": "PA"}, "geometry": {"type": "LineString", "coordinates": [[164.066, 55.2092], [168.188, 53.5694], [172.964, 51.6839], [178.498, 50.6189], [180.0, 50.50297]]}}, {"type": "Feature", "properties": {"name": "North American/Pacific", "a": "NA", "b": "PA"}, "geometry": {"type": "LineString", "coordinates": [[-180.0, 50.50297], [-176.223, 50.5883], [-172.484, 51.0693], [-168.972, 51.74], [-164.665, 52.8183], [-160.91, 53.6209], [-156.138, 54.5272], [-151.218, 56.3092], [-147.449, 57.8319], [-145.756, 59.2735]]}}, {"type": "Feature", "properties": {"name": "North American/Pacific", "a": "NA", "b": "PA"}, "geometry": {"type": "LineString", "coordinates": [[-145.756, 59.2735], [-141.598, 60.4009], [-138.353, 59.3357], [-136.209, 57.1178], [-134.151, 54.8122], [-132.169, 52.6971], [-130.85, 51.6121]]}}, {"type": "Feature", "properties": {"name": "North American/Pacific", "a": "NA", "b": "PA"}, "geometry": {"type": "LineString", "coordinates": [[-124.742, 40.3134], [-123.305, 38.5406], [-120.897, 36.3377], [-118.4, 34.658], [-116.66, 34.0424], [-115.773, 33.4211]]}}, {"type": "Feature", "properties": {"name": "North American/Pacific", "a": "NA", "b": "PA"}, "geometry": {"type": "LineString", "coordinates": [[-115.773, 33.4211], [-115.581, 32.876], [-114.765, 31.9952], [-114.33, 31.1936], [-113.807, 30.3135], [-113.969, 29.6458], [-113.087, 28.7147], [-111.711, 27.6935], [-111.506, 26.9267], [-110.778, 26.2249], [-109.806, 25.5567], [-109.178, 24.7348], [-108.61, 23.8141], [-108.01, 22.9857], [-108.232, 22.7117]]}}, {"type": "Feature", "properties": {"name": "North American/South American", "a": "NA", "b": "SA"}, "geometry": {"type": "LineString", "coordinates": [[-61.5534, 18.9589], [-57.4928, 19.052], [-54.1555, 17.1359], [-51.0241, 16.0729], [-47.693, 15.9566], [-46.7658, 15.4506]]}}, {"type": "Feature", "properties": {"name": "Nazca/Pacific", "a": "NZ", "b": "PA"}, "geometry": {"type": "LineString", "coordinates": [[-102.319, -0.015477], [-102.307, -1.59589], [-102.566, -2.93572], [-104.699, -4.15158], [-106.587, -5.62383], [-107.441, -6.3667], [-108.192, -8.35695], [-110.071, -9.66505], [-110.675, -11.4724], [-111.191, -13.3964], [-112.581, -14.0619], [-113.066, -16.3513], [-113.117, -17.065], [-113.383, -18.4442], [-113.697, -19.9675], [-114.318, -21.5636], [-114.421, -22.1145]]}}, {"type": "Feature", "properties": {"name": "Nazca/South American", "a": "NZ", "b": "SA"}, "geometry": {"type": "LineString", "coordinates": [[-76.0062, -45.6585], [-75.4017, -42.2845], [-75.1278, -39.8131], [-74.5956, -37.5635], [-73.2457, -34.2904], [-72.6783, -31.5313], [-72.1698, -28.2776], [-71.5243, -25.0928], [-71.3068, -21.9654]]}}, {"type": "Feature", "properties": {"name": "Nazca/Altiplano", "a": "NZ", "b": "AP"}, "geometry": {"type": "LineString", "coordinates": [[-71.3068, -21.9654], [-71.7465, -19.2981], [-74.6095, -16.823], [-75.9163, -15.7355]]}}, {"type": "Feature", "properties": {"name": "Nazca/South American", "a": "NZ", "b": "SA"}, "geometry": {"type": "LineString", "coordinates": [[-75.9163, -15.7355], [-78.1476, -13.3872], [-79.9966, -10.5603], [-81.5492, -7.30604], [-81.9258, -3.72131], [-81.5989, -3.24451]]}}, {"type": "Feature", "properties": {"name": "Nazca/North Andes", "a": "NZ", "b": "ND"}, "geometry": {"type": "LineString", "coordinates": [[-81.5989, -3.24451], [-81.2294, -0.284454], [-79.478, 2.42697], [-77.9101, 5.50529], [-78.008, 6.00453]]}}, {"type": "Feature", "properties": {"name": "Okinawa/Philippine Sea", "a": "ON", "b": "PS"}, "geometry": {"type": "LineString", "coordinates": [[128.462, 25.4576], [130.523, 27.7094], [131.524, 28.8591], [132.63, 30.4926], [132.824, 30.7544]]}}, {"type": "Feature", "properties": {"name": "Amurian/Philippine Sea", "a": "AM", "b": "PS"}, "geometry": {"type": "LineString", "coordinates": [[132.824, 30.7544], [134.691, 32.1997], [136.524, 32.8681], [138.508, 34.5822], [138.674, 35.0337]]}}, {"type": "Feature", "properties": {"name": "Okhotsk/Philippine Sea", "a": "OK", "b": "PS"}, "geometry": {"type": "LineString", "coordinates": [[138.674, 35.0337], [140.87, 34.5295], [141.883, 34.2127]]}}, {"type": "Feature", "properties": {"name": "Philippine Sea/Caroline", "a": "PS", "b": "CL"}, "geometry": {"type": "LineString", "coordinates": [[134.521, 6.99019], [137.529, 7.87117], [138.359, 9.37865]]}}, {"type": "Feature", "properties": {"name": "Philippine Sea/Pacific", "a": "PS", "b": "PA"}, "geometry": {"type": "LineString", "coordinates": [[138.359, 9.37865], [140.1, 10.9459], [143.097, 11.5689]]}}, {"type": "Feature", "properties": {"name": "Mariana/Pacific", "a": "MA", "b": "PA"}, "geometry": {"type": "LineString", "coordinates": [[143.097, 11.5689], [145.349, 12.3141], [147.462, 14.9661], [147.82, 18.6465], [146.822, 21.3306], [144.022, 23.7644], [143.522, 24.3908]]}}, {"type": "Feature", "properties": {"name": "Philippine Sea/Pacific", "a": "PS", "b": "PA"}, "geometry": {"type": "LineString", "coordinates": [[143.522, 24.3908], [143.26, 26.737], [142.507, 29.6208], [141.994, 32.5576], [141.883, 34.2127]]}}, {"type": "Feature", "properties": {"name": "Kermadec/Tonga", "a": "KE", "b": "TO"}, "geometry": {"type": "LineString", "coordinates": [[-174.985, -23.7499], [-177.419, -24.1051]]}}, {"type": "Feature", "properties": {"name": "Niuafo'ou/Futuna", "a": "NI", "b": "FT"}, "geometry": {"type": "LineString", "coordinates": [[-176.346, -14.634], [-176.387, -15.3117], [-177.13, -15.5594]]}}, {"type": "Feature", "properties": {"name": "Niuafo'ou/Australian", "a": "NI", "b": "AU"}, "geometry": {"type": "LineString", "coordinates": [[-177.13, -15.5594], [-177.634, -16.0236], [-177.201, -16.5746], [-176.625, -17.3992], [-176.297, -18.1308], [-176.551, -18.6855], [-175.979, -19.3865]]}}, {"type": "Feature", "properties": {"name": "Tonga/Niuafo'ou", "a": "TO", "b": "NI"}, "geometry": {"type": "LineString", "coordinates": [[-173.836, -14.5338], [-174.188, -15.133], [-174.822, -15.6161], [-174.569, -16.2008], [-174.523, -17.0658], [-174.56, -17.6301], [-174.956, -18.6045], [-175.21, -19.7037], [-175.979, -19.3865]]}}, {"type": "Feature", "properties": {"name": "Tonga/Australian", "a": "TO", "b": "AU"}, "geometry": {"type": "LineString", "coordinates": [[-175.979, -19.3865], [-176.116, -20.1289], [-176.237, -20.7958], [-176.405, -21.4874], [-176.691, -22.2864], [-177.25, -23.7079], [-177.419, -24.1051]]}}, {"type": "Feature", "properties": {"name": "South China/Antarctic", "a": "SC", "b": "AN"}, "geometry": {"type": "LineString", "coordinates": [[-76.4833, -52.0684], [-74.7492, -54.6451], [-71.5481, -56.2552], [-65.8672, -57.7363], [-64.617, -57.9586]]}}, {"type": "Feature", "properties": {"name": "South China/Antarctic", "a": "SC", "b": "AN"}, "geometry": {"type": "LineString", "coordinates": [[-64.617, -57.9586], [-58.9698, -59.7285], [-56.925, -60.5647]]}}, {"type": "Feature", "properties": {"name": "Shetland/Antarctic", "a": "SL", "b": "AN"}, "geometry": {"type": "LineString", "coordinates": [[-56.925, -60.5647], [-60.6502, -61.3632], [-63.9693, -62.4224]]}}, {"type": "Feature", "properties": {"name": "Shetland/Antarctic", "a": "SL", "b": "AN"}, "geometry": {"type": "LineString", "coordinates": [[-63.9693, -62.4224], [-58.6143, -62.5533], [-54.3007, -61.5102]]}}, {"type": "Feature", "properties": {"name": "South China/Shetland", "a": "SC", "b": "SL"}, "geometry": {"type": "LineString", "coordinates": [[-56.925, -60.5647], [-54.3007, -61.5102]]}}, {"type": "Feature", "properties": {"name": "South China/Antarctic", "a": "SC", "b": "AN"}, "geometry": {"type": "LineString", "coordinates": [[-54.3007, -61.5102], [-49.5994, -60.0436], [-44.2259, -60.2425]]}}, {"type": "Feature", "properties": {"name": "Eurasian/African", "a": "EU", "b": "AF"}, "geometry": {"type": "LineString", "coordinates": [[20.0, 37.9075], [20.3001, 37.8039]]}}, {"type": "Feature", "properties": {"name": "Aegean Sea/Anatolian", "a": "AS", "b": "AT"}, "geometry": {"type": "LineString", "coordinates": [[29.7309, 35.4273], [28.2545, 37.2689], [27.6719, 38.4991], [25.4165, 40.1564]]}}, {"type": "Feature", "properties": {"name": "Aegean Sea/Eurasian", "a": "AS", "b": "EU"}, "geometry": {"type": "LineString", "coordinates": [[25.4165, 40.1564], [23.4634, 39.2869], [21.5822, 38.4205], [20.3001, 37.8039]]}}, {"type": "Feature", "properties": {"name": "Arabian/African", "a": "AR", "b": "AF"}, "geometry": {"type": "LineString", "coordinates": [[36.4134, 36.0232], [35.7262, 33.7097], [35.1417, 30.7025], [34.9519, 30.0]]}}, {"type": "Feature", "properties": {"name": "Anatolian/Arabian", "a": "AT", "b": "AR"}, "geometry": {"type": "LineString", "coordinates": [[36.4134, 36.0232], [37.6822, 37.8337], [40.1627, 38.7681], [41.0015, 39.0799]]}}, {"type": "Feature", "properties": {"name": "Eurasian/Arabian", "a": "EU", "b": "AR"}, "geometry": {"type": "LineString", "coordinates": [[41.0015, 39.0799], [42.7973, 37.9905], [44.5148, 36.015], [45.0, 34.5906]]}}, {"type": "Feature", "properties": {"name": "Anatolian/Eurasian", "a": "AT", "b": "EU"}, "geometry": {"type": "LineString", "coordinates": [[41.0015, 39.0799], [38.0213, 40.269], [34.2864, 41.1587], [30.7745, 40.601], [27.5677, 40.64], [25.4165, 40.1564]]}}, {"type": "Feature", "properties": {"name": "Okhotsk/North American", "a": "OK", "b": "NA"}, "geometry": {"type": "LineString", "coordinates": [[164.066, 55.2092], [163.721, 57.6638], [167.623, 59.842], [170.743, 61.7358]]}}, {"type": "Feature", "properties": {"name": "Okhotsk/North American", "a": "OK", "b": "NA"}, "geometry": {"type": "LineString", "coordinates": [[170.743, 61.7358], [165.013, 61.3376], [159.367, 61.3222], [152.596, 62.3526], [144.932, 65.2865]]}}, {"type": "Feature", "properties": {"name": "Okhotsk/Eurasian", "a": "OK", "b": "EU"}, "geometry": {"type": "LineString", "coordinates": [[144.932, 65.2865], [146.126, 61.5698], [142.187, 59.9484], [141.709, 57.5985], [141.943, 55.1123], [142.409, 54.0349]]}}, {"type": "Feature", "properties": {"name": "Okhotsk/Amurian", "a": "OK", "b": "AM"}, "geometry": {"type": "LineString", "coordinates": [[142.409, 54.0349], [142.398, 50.8574], [142.023, 48.0512], [139.158, 45.9466], [138.801, 43.1922], [138.475, 41.103], [138.085, 39.6594], [137.902, 37.184], [138.421, 35.36], [138.674, 35.0337]]}}, {"type": "Feature", "properties": {"name": "Amurian/Eurasian", "a": "AM", "b": "EU"}, "geometry": {"type": "LineString", "coordinates": [[142.409, 54.0349], [136.61, 54.8299], [130.747, 55.8611], [124.573, 57.1781], [119.918, 57.3159], [115.015, 56.5256], [109.375, 55.3308], [107.029, 52.7578], [104.904, 50.786], [106.048, 47.3797], [106.765, 44.9873], [109.041, 42.6365], [112.911, 41.0237], [116.379, 40.2675], [119.846, 40.6543], [122.732, 42.1878], [125.376, 39.2829], [126.115, 36.1691], [126.263, 34.2521]]}}, {"type": "Feature", "properties": {"name": "Eurasian/Sunda", "a": "EU", "b": "SU"}, "geometry": {"type": "LineString", "coordinates": [[96.4803, 14.4], [100.297, 15.4616], [102.615, 17.6327], [105.817, 17.7504], [110.512, 17.7831], [113.313, 18.2804], [114.0, 18.4377]]}}, {"type": "Feature", "properties": {"name": "Yangtze/Sunda", "a": "YA", "b": "SU"}, "geometry": {"type": "LineString", "coordinates": [[114.0, 18.4377], [117.145, 19.9395], [118.958, 22.0031], [120.452, 21.6321]]}}, {"type": "Feature", "properties": {"name": "Balmoral Reef/Eurasian", "a": "BU", "b": "EU"}, "geometry": {"type": "LineString", "coordinates": [[96.4803, 14.4], [96.4061, 15.1355]]}}, {"type": "Feature", "properties": {"name": "Indian/Eurasian", "a": "IN", "b": "EU"}, "geometry": {"type": "LineString", "coordinates": [[96.4061, 15.1355], [96.4207, 17.9816], [95.9183, 21.681], [96.3104, 25.1336], [97.4711, 27.7024], [97.3484, 28.0826]]}}, {"type": "Feature", "properties": {"name": "Balmoral Reef/Indian", "a": "BU", "b": "IN"}, "geometry": {"type": "LineString", "coordinates": [[92.2781, 6.94757], [93.227, 3.71599], [94.9794, 2.1041]]}}, {"type": "Feature", "properties": {"name": "Balmoral Reef/Australian", "a": "BU", "b": "AU"}, "geometry": {"type": "LineString", "coordinates": [[94.9794, 2.1041], [96.2019, 1.345]]}}, {"type": "Feature", "properties": {"name": "Sunda/Australian", "a": "SU", "b": "AU"}, "geometry": {"type": "LineString", "coordinates": [[96.2019, 1.345], [97.7695, -1.24714], [99.6748, -3.72852], [101.858, -6.55836], [104.576, -8.16657]]}}, {"type": "Feature", "properties": {"name": "Eurasian/Yangtze", "a": "EU", "b": "YA"}, "geometry": {"type": "LineString", "coordinates": [[114.0, 18.4377], [112.784, 20.5609], [110.308, 22.4951], [106.578, 24.6464], [104.942, 27.8784], [108.043, 30.0049], [111.615, 31.6603], [113.25, 34.469], [116.521, 33.593], [119.001, 31.376], [122.195, 31.5305], [123.364, 31.4713]]}}, {"type": "Feature", "properties": {"name": "Altiplano/South American", "a": "AP", "b": "SA"}, "geometry": {"type": "LineString", "coordinates": [[-71.3068, -21.9654], [-67.6552, -21.5], [-64.7321, -21.4275], [-63.2865, -19.5109], [-64.5845, -17.4023], [-67.2176, -15.0785], [-69.5014, -13.2611], [-72.6548, -12.4178], [-75.4176, -15.1167], [-75.9163, -15.7355]]}}, {"type": "Feature", "properties": {"name": "Pacific/North American", "a": "PA", "b": "NA"}, "geometry": {"type": "LineString", "coordinates": [[-108.582, 21.9047], [-108.407, 22.4401], [-108.232, 22.7117]]}}, {"type": "Feature", "properties": {"name": "Rivera/Pacific", "a": "RI", "b": "PA"}, "geometry": {"type": "LineString", "coordinates": [[-108.582, 21.9047], [-108.977, 21.347], [-109.194, 20.7392], [-109.319, 20.2423], [-108.903, 19.6255], [-107.816, 18.936], [-106.527, 18.5444], [-106.308, 17.929], [-105.586, 17.8808]]}}, {"type": "Feature", "properties": {"name": "North American/Rivera", "a": "NA", "b": "RI"}, "geometry": {"type": "LineString", "coordinates": [[-108.582, 21.9047], [-107.586, 21.7417], [-106.89, 21.7992]]}}, {"type": "Feature", "properties": {"name": "North American/Rivera", "a": "NA", "b": "RI"}, "geometry": {"type": "LineString", "coordinates": [[-106.89, 21.7992], [-106.551, 21.2355], [-106.385, 20.4281], [-105.739, 19.1644], [-105.247, 18.7619]]}}, {"type": "Feature", "properties": {"name": "Rivera/Cocos", "a": "RI", "b": "CO"}, "geometry": {"type": "LineString", "coordinates": [[-105.586, 17.8808], [-105.247, 18.7619]]}}, {"type": "Feature", "properties": {"name": "Philippine Sea/Yangtze", "a": "PS", "b": "YA"}, "geometry": {"type": "LineString", "coordinates": [[121.575, 24.6914], [121.335, 24.963]]}}, {"type": "Feature", "properties": {"name": "Philippine Sea/Yangtze", "a": "PS", "b": "YA"}, "geometry": {"type": "LineString", "coordinates": [[121.335, 24.963], [120.425, 22.0434], [120.452, 21.6321]]}}, {"type": "Feature", "properties": {"name": "Philippine Sea/Sunda", "a": "PS", "b": "SU"}, "geometry": {"type": "LineString", "coordinates": [[120.452, 21.6321], [120.115, 19.4868], [119.255, 16.5557]]}}, {"type": "Feature", "properties": {"name": "Philippine Sea/Sunda", "a": "PS", "b": "SU"}, "geometry": {"type": "LineString", "coordinates": [[119.255, 16.5557], [121.616, 15.8018], [123.959, 15.0226], [124.891, 14.7042]]}}, {"type": "Feature", "properties": {"name": "Philippine Sea/Sunda", "a": "PS", "b": "SU"}, "geometry": {"type": "LineString", "coordinates": [[124.891, 14.7042], [126.24, 11.6304], [127.219, 8.13649], [127.836, 5.22401], [129.217, 2.67063], [129.197, 1.05932]]}}, {"type": "Feature", "properties": {"name": "Sunda/Birds Head", "a": "SU", "b": "BH"}, "geometry": {"type": "LineString", "coordinates": [[126.872, 2.34565], [129.197, 1.05932]]}}, {"type": "Feature", "properties": {"name": "Birds Head/Sunda", "a": "BH", "b": "SU"}, "geometry": {"type": "LineString", "coordinates": [[126.872, 2.34565], [126.426, 1.70646]]}}, {"type": "Feature", "properties": {"name": "Maewo/Sunda", "a": "MS", "b": "SU"}, "geometry": {"type": "LineString", "coordinates": [[126.426, 1.70646], [125.969, 0.189999]]}}, {"type": "Feature", "properties": {"name": "Maewo/Sunda", "a": "MS", "b": "SU"}, "geometry": {"type": "LineString", "coordinates": [[123.43, 2.00599], [120.189, 2.20752], [119.475, -0.08103]]}}, {"type": "Feature", "properties": {"name": "Maewo/Banda Sea", "a": "MS", "b": "BS"}, "geometry": {"type": "LineString", "coordinates": [[119.475, -0.08103], [121.728, -2.15418], [123.706, -3.94122], [125.901, -4.75351], [127.325, -3.7191]]}}, {"type": "Feature", "properties": {"name": "Maewo/Banda Sea", "a": "MS", "b": "BS"}, "geometry": {"type": "LineString", "coordinates": [[127.325, -3.7191], [127.666, -1.75821]]}}, {"type": "Feature", "properties": {"name": "Maewo/Birds Head", "a": "MS", "b": "BH"}, "geometry": {"type": "LineString", "coordinates": [[125.969, -0.277582], [126.426, 1.70646]]}}, {"type": "Feature", "properties": {"name": "Banda Sea/Sunda", "a": "BS", "b": "SU"}, "geometry": {"type": "LineString", "coordinates": [[119.475, -0.08103], [118.578, -3.25522], [118.823, -3.60956]]}}, {"type": "Feature", "properties": {"name": "Banda Sea/Sunda", "a": "BS", "b": "SU"}, "geometry": {"type": "LineString", "coordinates": [[118.823, -3.60956], [120.62, -6.12225], [120.543, -7.81221]]}}, {"type": "Feature", "properties": {"name": "Banda Sea/Australian", "a": "BS", "b": "AU"}, "geometry": {"type": "LineString", "coordinates": [[132.689, -6.68099], [133.906, -4.812]]}}, {"type": "Feature", "properties": {"name": "Maewo/Birds Head", "a": "MS", "b": "BH"}, "geometry": {"type": "LineString", "coordinates": [[127.666, -1.75821], [125.969, -0.277582]]}}, {"type": "Feature", "properties": {"name": "Birds Head/Banda Sea", "a": "BH", "b": "BS"}, "geometry": {"type": "LineString", "coordinates": [[127.666, -1.75821], [128.383, -2.28637]]}}, {"type": "Feature", "properties": {"name": "Birds Head/Banda Sea", "a": "BH", "b": "BS"}, "geometry": {"type": "LineString", "coordinates": [[128.383, -2.28637], [131.489, -3.14894], [132.717, -4.44004]]}}, {"type": "Feature", "properties": {"name": "Birds Head/Banda Sea", "a": "BH", "b": "BS"}, "geometry": {"type": "LineString", "coordinates": [[132.717, -4.44004], [133.906, -4.812]]}}, {"type": "Feature", "properties": {"name": "Sunda/Timor", "a": "SU", "b": "TI"}, "geometry": {"type": "LineString", "coordinates": [[120.886, -11.4925], [120.576, -8.40958], [120.543, -7.81221]]}}, {"type": "Feature", "properties": {"name": "Banda Sea/Timor", "a": "BS", "b": "TI"}, "geometry": {"type": "LineString", "coordinates": [[120.543, -7.81221], [124.235, -7.78434], [126.755, -7.18521], [129.236, -6.33421], [132.133, -6.66168], [132.689, -6.68099]]}}, {"type": "Feature", "properties": {"name": "Birds Head/Caroline", "a": "BH", "b": "CL"}, "geometry": {"type": "LineString", "coordinates": [[138.793, -1.15941], [136.451, -0.228139], [133.327, -0.145685], [132.515, 0.017058]]}}, {"type": "Feature", "properties": {"name": "Birds Head/Philippine Sea", "a": "BH", "b": "PS"}, "geometry": {"type": "LineString", "coordinates": [[132.515, 0.017058], [129.989, 0.684156], [129.197, 1.05932]]}}, {"type": "Feature", "properties": {"name": "Australian/Molucca Sea", "a": "AU", "b": "MO"}, "geometry": {"type": "LineString", "coordinates": [[140.798, -5.10959], [138.01, -4.33682], [134.966, -4.29798]]}}, {"type": "Feature", "properties": {"name": "Australian/Birds Head", "a": "AU", "b": "BH"}, "geometry": {"type": "LineString", "coordinates": [[134.966, -4.29798], [133.906, -4.812]]}}, {"type": "Feature", "properties": {"name": "Molucca Sea/Birds Head", "a": "MO", "b": "BH"}, "geometry": {"type": "LineString", "coordinates": [[138.972, -1.6075], [136.931, -2.49285], [134.966, -4.29798]]}}, {"type": "Feature", "properties": {"name": "Sunda/Balmoral Reef", "a": "SU", "b": "BU"}, "geometry": {"type": "LineString", "coordinates": [[96.4803, 14.4], [94.8068, 11.1876], [93.986, 9.01948], [94.8826, 7.1393], [96.5669, 4.64448], [96.2019, 1.345]]}}, {"type": "Feature", "properties": {"name": "Indian/Balmoral Reef", "a": "IN", "b": "BU"}, "geometry": {"type": "LineString", "coordinates": [[92.2781, 6.94757], [91.5334, 9.6037], [91.7, 12.2832], [92.0682, 13.7149]]}}, {"type": "Feature", "properties": {"name": "Indian/Balmoral Reef", "a": "IN", "b": "BU"}, "geometry": {"type": "LineString", "coordinates": [[92.0682, 13.7149], [94.2086, 15.7702], [96.4061, 15.1355]]}}, {"type": "Feature", "properties": {"name": "Maewo/Sunda", "a": "MS", "b": "SU"}, "geometry": {"type": "LineString", "coordinates": [[125.969, 0.189999], [125.263, -0.445578]]}}, {"type": "Feature", "properties": {"name": "Maewo/Sunda", "a": "MS", "b": "SU"}, "geometry": {"type": "LineString", "coordinates": [[125.263, -0.445578], [123.535, 1.35416], [123.43, 2.00599]]}}, {"type": "Feature", "properties": {"name": "Eurasian/North American", "a": "EU", "b": "NA"}, "geometry": {"type": "LineString", "coordinates": [[-15.7156, 69.5499], [-17.3917, 68.6995], [-19.0988, 67.0581], [-16.5068, 66.203], [-17.3675, 64.7367], [-20.0967, 63.9494], [-22.872, 63.7673], [-24.0095, 63.3551], [-25.0351, 62.8003], [-25.8748, 62.3751], [-27.0316, 61.6654], [-28.0237, 60.9563], [-28.9266, 60.3334], [-29.3717, 60.0827]]}}, {"type": "Feature", "properties": {"name": "Indian/Australian", "a": "IN", "b": "AU"}, "geometry": {"type": "LineString", "coordinates": [[68.2738, -6.81092], [71.3125, -6.59931], [73.544, -6.19055], [74.8331, -4.51388], [77.9808, -4.99351], [81.072, -4.2128], [83.7288, -3.22518], [87.2245, -4.08784], [89.4304, -1.1786], [93.0462, 0.548836], [94.9794, 2.1041]]}}, {"type": "Feature", "properties": {"name": "Pacific/Australian", "a": "PA", "b": "AU"}, "geometry": {"type": "LineString", "coordinates": [[166.951, -44.9871], [166.019, -45.8872], [165.021, -46.6013], [164.699, -47.4439], [164.398, -48.0593], [164.13, -48.7417], [163.448, -49.7612], [163.235, -50.0787]]}}, {"type": "Feature", "properties": {"name": "Pacific/Australian", "a": "PA", "b": "AU"}, "geometry": {"type": "LineString", "coordinates": [[163.235, -50.0787], [162.453, -50.6679], [161.542, -51.3988], [160.671, -52.2918], [159.731, -53.1704], [158.985, -54.0883], [158.596, -55.0467], [158.153, -56.1647], [157.64, -57.2302], [158.121, -58.6051], [159.186, -59.5107], [159.803, -60.0055]]}}, {"type": "Feature", "properties": {"name": "Okinawa/Philippine Sea", "a": "ON", "b": "PS"}, "geometry": {"type": "LineString", "coordinates": [[121.575, 24.6914], [123.518, 23.4541], [125.55, 23.3799]]}}, {"type": "Feature", "properties": {"name": "Okinawa/Philippine Sea", "a": "ON", "b": "PS"}, "geometry": {"type": "LineString", "coordinates": [[125.55, 23.3799], [127.907, 24.969], [128.462, 25.4576]]}}, {"type": "Feature", "properties": {"name": "Yangtze/Okinawa", "a": "YA", "b": "ON"}, "geometry": {"type": "LineString", "coordinates": [[121.575, 24.6914], [123.755, 25.0165], [125.736, 25.6437], [126.82, 26.8106], [127.599, 27.7896], [129.055, 29.3554], [128.819, 31.0245], [129.442, 31.7926]]}}, {"type": "Feature", "properties": {"name": "Amurian/Okinawa", "a": "AM", "b": "ON"}, "geometry": {"type": "LineString", "coordinates": [[129.442, 31.7926], [131.717, 31.7606], [132.824, 30.7544]]}}, {"type": "Feature", "properties": {"name": "Eurasian/Amurian", "a": "EU", "b": "AM"}, "geometry": {"type": "LineString", "coordinates": [[123.364, 31.4713], [126.263, 34.2521]]}}, {"type": "Feature", "properties": {"name": "Amurian/Yangtze", "a": "AM", "b": "YA"}, "geometry": {"type": "LineString", "coordinates": [[123.364, 31.4713], [126.404, 31.2274], [129.442, 31.7926]]}}, {"type": "Feature", "properties": {"name": "Caroline/Philippine Sea", "a": "CL", "b": "PS"}, "geometry": {"type": "LineString", "coordinates": [[134.521, 6.99019], [133.308, 5.73427], [132.79, 4.11986], [132.766, 2.25688], [132.515, 0.017058]]}}, {"type": "Feature", "properties": {"name": "Pacific/Caroline", "a": "PA", "b": "CL"}, "geometry": {"type": "LineString", "coordinates": [[138.359, 9.37865], [141.517, 8.11804], [144.026, 6.67698], [146.382, 5.88304], [148.191, 3.77564], [148.863, 0.936586], [149.27, -0.65021]]}}, {"type": "Feature", "properties": {"name": "Caroline/North Bismarck", "a": "CL", "b": "NB"}, "geometry": {"type": "LineString", "coordinates": [[142.246, -2.6931], [143.808, -0.950568], [146.595, -0.290218], [148.724, -0.391858], [149.27, -0.65021]]}}, {"type": "Feature", "properties": {"name": "Pacific/North Bismarck", "a": "PA", "b": "NB"}, "geometry": {"type": "LineString", "coordinates": [[149.27, -0.65021], [150.717, -1.22404], [152.578, -2.13414], [153.711, -2.68759], [154.7, -4.28294], [154.545, -5.90097], [154.927, -7.29284]]}}, {"type": "Feature", "properties": {"name": "Caroline/Woodlark", "a": "CL", "b": "WL"}, "geometry": {"type": "LineString", "coordinates": [[138.793, -1.15941], [141.195, -2.16673], [142.246, -2.6931]]}}, {"type": "Feature", "properties": {"name": "Woodlark/Birds Head", "a": "WL", "b": "BH"}, "geometry": {"type": "LineString", "coordinates": [[138.793, -1.15941], [138.972, -1.6075]]}}, {"type": "Feature", "properties": {"name": "North Bismarck/South Bismarck", "a": "NB", "b": "SB"}, "geometry": {"type": "LineString", "coordinates": [[143.743, -3.46045], [146.415, -3.43769], [147.162, -3.261], [147.539, -2.88103], [148.329, -3.14063], [149.295, -3.52151], [149.816, -3.61764]]}}, {"type": "Feature", "properties": {"name": "North Bismarck/Woodlark", "a": "NB", "b": "WL"}, "geometry": {"type": "LineString", "coordinates": [[142.246, -2.6931], [143.508, -3.15594], [143.743, -3.46045]]}}, {"type": "Feature", "properties": {"name": "North Bismarck/Manus", "a": "NB", "b": "MN"}, "geometry": {"type": "LineString", "coordinates": [[149.817, -3.61656], [150.352, -3.14092], [150.615, -3.08491], [150.824, -3.34847], [151.095, -3.54725], [151.301, -3.65625]]}}, {"type": "Feature", "properties": {"name": "Manus/South Bismarck", "a": "MN", "b": "SB"}, "geometry": {"type": "LineString", "coordinates": [[149.817, -3.61656], [150.192, -3.82943], [150.552, -3.83913], [151.095, -3.8063], [151.301, -3.65625]]}}, {"type": "Feature", "properties": {"name": "North Bismarck/South Bismarck", "a": "NB", "b": "SB"}, "geometry": {"type": "LineString", "coordinates": [[151.301, -3.65625], [151.814, -3.72013], [152.226, -3.73899], [152.616, -4.1301], [153.614, -5.70366], [153.93, -6.265]]}}, {"type": "Feature", "properties": {"name": "South Bismarck/Woodlark", "a": "SB", "b": "WL"}, "geometry": {"type": "LineString", "coordinates": [[143.743, -3.46045], [144.867, -4.96807], [146.956, -6.71785], [148.587, -7.39451]]}}, {"type": "Feature", "properties": {"name": "Woodlark/South Sandwich", "a": "WL", "b": "SS"}, "geometry": {"type": "LineString", "coordinates": [[155.454, -7.48875], [153.697, -8.96649], [153.255, -9.18615]]}}, {"type": "Feature", "properties": {"name": "Woodlark/Australian", "a": "WL", "b": "AU"}, "geometry": {"type": "LineString", "coordinates": [[151.654, -9.76005], [152.086, -9.944], [152.651, -10.0777], [153.552, -10.355], [154.169, -10.323], [154.719, -9.76305], [155.172, -9.72993], [155.473, -9.56795], [155.813, -9.57154], [156.066, -9.40524], [156.428, -9.17875], [156.296, -8.17405]]}}, {"type": "Feature", "properties": {"name": "Philippine Sea/Mariana", "a": "PS", "b": "MA"}, "geometry": {"type": "LineString", "coordinates": [[143.097, 11.5689], [143.403, 12.6947], [143.903, 13.6235], [144.334, 14.8845], [144.841, 16.478], [144.706, 18.0198], [144.527, 19.1234], [143.842, 20.4178], [143.321, 21.0606], [142.774, 22.3766], [142.257, 23.0091]]}}, {"type": "Feature", "properties": {"name": "Philippine Sea/Mariana", "a": "PS", "b": "MA"}, "geometry": {"type": "LineString", "coordinates": [[142.257, 23.0091], [143.522, 24.3908]]}}, {"type": "Feature", "properties": {"name": "New Hebrides/Pacific", "a": "NH", "b": "PA"}, "geometry": {"type": "LineString", "coordinates": [[172.571, -13.4106], [171.619, -13.75], [170.642, -14.0878], [169.622, -13.8084], [168.792, -13.6302], [166.154, -13.7794]]}}, {"type": "Feature", "properties": {"name": "Conway Reef/New Hebrides", "a": "CR", "b": "NH"}, "geometry": {"type": "LineString", "coordinates": [[173.901, -16.8493], [173.409, -18.238], [173.439, -19.2211], [173.351, -20.3774], [174.119, -21.1477], [174.034, -22.4881]]}}, {"type": "Feature", "properties": {"name": "New Hebrides/Australian", "a": "NH", "b": "AU"}, "geometry": {"type": "LineString", "coordinates": [[172.439, -23.1781], [174.034, -22.4881]]}}, {"type": "Feature", "properties": {"name": "Balmoral Reef/New Hebrides", "a": "BR", "b": "NH"}, "geometry": {"type": "LineString", "coordinates": [[172.571, -13.4106], [173.178, -14.6687], [173.346, -15.1544], [173.516, -15.5671], [173.531, -16.0271], [173.718, -16.7127], [173.901, -16.8493]]}}, {"type": "Feature", "properties": {"name": "Balmoral Reef/Conway Reef", "a": "BR", "b": "CR"}, "geometry": {"type": "LineString", "coordinates": [[173.901, -16.8493], [175.381, -16.6289], [176.184, -16.5521]]}}, {"type": "Feature", "properties": {"name": "Australian/Conway Reef", "a": "AU", "b": "CR"}, "geometry": {"type": "LineString", "coordinates": [[176.184, -16.5521], [176.036, -17.2389], [176.3, -18.1403], [176.061, -18.8945], [175.839, -19.4451], [175.59, -20.1887]]}}, {"type": "Feature", "properties": {"name": "Australian/Conway Reef", "a": "AU", "b": "CR"}, "geometry": {"type": "LineString", "coordinates": [[175.59, -20.1887], [174.584, -22.1704], [174.034, -22.4881]]}}, {"type": "Feature", "properties": {"name": "Balmoral Reef/Australian", "a": "BR", "b": "AU"}, "geometry": {"type": "LineString", "coordinates": [[176.184, -16.5521], [176.883, -16.5435], [177.269, -16.5059], [177.588, -16.2245], [178.086, -16.1485], [178.524, -15.9838], [178.562, -15.8973]]}}, {"type": "Feature", "properties": {"name": "Balmoral Reef/Australian", "a": "BR", "b": "AU"}, "geometry": {"type": "LineString", "coordinates": [[-180.0, -15.620711], [-179.739, -15.5422]]}}, {"type": "Feature", "properties": {"name": "Balmoral Reef/Australian", "a": "BR", "b": "AU"}, "geometry": {"type": "LineString", "coordinates": [[178.562, -15.8973], [180.0, -15.620711]]}}, {"type": "Feature", "properties": {"name": "Balmoral Reef/Australian", "a": "BR", "b": "AU"}, "geometry": {"type": "LineString", "coordinates": [[-180.0, -15.620711], [-179.739, -15.5422]]}}, {"type": "Feature", "properties": {"name": "Pacific/Balmoral Reef", "a": "PA", "b": "BR"}, "geometry": {"type": "LineString", "coordinates": [[172.571, -13.4106], [174.661, -13.4146], [175.947, -13.4221], [177.167, -13.9483], [177.417, -14.0551]]}}, {"type": "Feature", "properties": {"name": "Pacific/Balmoral Reef", "a": "PA", "b": "BR"}, "geometry": {"type": "LineString", "coordinates": [[-180.0, -15.362382], [-179.739, -15.5422]]}}, {"type": "Feature", "properties": {"name": "Pacific/Balmoral Reef", "a": "PA", "b": "BR"}, "geometry": {"type": "LineString", "coordinates": [[177.417, -14.0551], [179.79, -15.2177], [180.0, -15.362382]]}}, {"type": "Feature", "properties": {"name": "Pacific/Balmoral Reef", "a": "PA", "b": "BR"}, "geometry": {"type": "LineString", "coordinates": [[-180.0, -15.362382], [-179.739, -15.5422]]}}, {"type": "Feature", "properties": {"name": "Pacific/Australian", "a": "PA", "b": "AU"}, "geometry": {"type": "LineString", "coordinates": [[-179.739, -15.5422], [-179.444, -15.5268]]}}, {"type": "Feature", "properties": {"name": "Futuna/Australian", "a": "FT", "b": "AU"}, "geometry": {"type": "LineString", "coordinates": [[-179.444, -15.5268], [-177.13, -15.5594]]}}, {"type": "Feature", "properties": {"name": "Futuna/Pacific", "a": "FT", "b": "PA"}, "geometry": {"type": "LineString", "coordinates": [[-176.346, -14.634], [-178.733, -13.9861], [-179.444, -15.5268]]}}, {"type": "Feature", "properties": {"name": "Easter/Pacific", "a": "EA", "b": "PA"}, "geometry": {"type": "LineString", "coordinates": [[-114.421, -22.1145], [-114.962, -23.1789], [-115.402, -24.0174], [-116.225, -24.5558], [-115.769, -25.9677], [-113.944, -26.7897], [-112.976, -26.8302]]}}, {"type": "Feature", "properties": {"name": "Easter/Nazca", "a": "EA", "b": "NZ"}, "geometry": {"type": "LineString", "coordinates": [[-112.976, -26.8302], [-112.672, -26.0379], [-112.437, -25.6827], [-112.453, -25.0594], [-112.123, -24.2224], [-111.864, -23.475], [-112.575, -22.6195], [-114.125, -22.1057], [-114.421, -22.1145]]}}, {"type": "Feature", "properties": {"name": "Juan Fernandez/Pacific", "a": "JZ", "b": "PA"}, "geometry": {"type": "LineString", "coordinates": [[-112.023, -31.5362], [-112.356, -32.3278], [-112.504, -33.6498], [-112.187, -34.6742], [-110.827, -35.0908]]}}, {"type": "Feature", "properties": {"name": "Juan Fernandez/Antarctic", "a": "JZ", "b": "AN"}, "geometry": {"type": "LineString", "coordinates": [[-110.827, -35.0908], [-109.691, -34.6092], [-109.259, -34.5446]]}}, {"type": "Feature", "properties": {"name": "Juan Fernandez/Nazca", "a": "JZ", "b": "NZ"}, "geometry": {"type": "LineString", "coordinates": [[-109.259, -34.5446], [-109.41, -33.1401], [-109.791, -32.1152], [-112.023, -31.5362]]}}, {"type": "Feature", "properties": {"name": "Nazca/Pacific", "a": "NZ", "b": "PA"}, "geometry": {"type": "LineString", "coordinates": [[-112.976, -26.8302], [-112.971, -27.8495], [-113.02, -28.7872], [-111.773, -30.0247], [-111.951, -31.0446], [-112.023, -31.5362]]}}, {"type": "Feature", "properties": {"name": "Galapagos/Pacific", "a": "GP", "b": "PA"}, "geometry": {"type": "LineString", "coordinates": [[-102.068, 2.63532], [-102.09, 2.3909], [-102.075, 2.02449], [-102.262, 1.75155], [-102.203, 1.22065], [-102.181, 1.13426]]}}, {"type": "Feature", "properties": {"name": "Galapagos/Nazca", "a": "GP", "b": "NZ"}, "geometry": {"type": "LineString", "coordinates": [[-102.181, 1.13426], [-101.58, 1.31773], [-101.195, 1.42309], [-100.973, 1.67885], [-101.27, 2.0485], [-101.512, 2.23226]]}}, {"type": "Feature", "properties": {"name": "Galapagos/Cocos", "a": "GP", "b": "CO"}, "geometry": {"type": "LineString", "coordinates": [[-101.512, 2.23226], [-102.068, 2.63532]]}}, {"type": "Feature", "properties": {"name": "Pacific/Cocos", "a": "PA", "b": "CO"}, "geometry": {"type": "LineString", "coordinates": [[-102.068, 2.63532], [-102.193, 3.07219], [-102.219, 3.23869]]}}, {"type": "Feature", "properties": {"name": "Nazca/Pacific", "a": "NZ", "b": "PA"}, "geometry": {"type": "LineString", "coordinates": [[-102.181, 1.13426], [-102.319, -0.015477]]}}, {"type": "Feature", "properties": {"name": "Cocos/Nazca", "a": "CO", "b": "NZ"}, "geometry": {"type": "LineString", "coordinates": [[-101.512, 2.23226], [-100.394, 2.2065], [-99.7389, 2.26882]]}}, {"type": "Feature", "properties": {"name": "South China/South American", "a": "SC", "b": "SA"}, "geometry": {"type": "LineString", "coordinates": [[-29.4885, -55.0334], [-33.0577, -55.458], [-37.8103, -55.0862], [-42.4101, -53.8797], [-47.6626, -52.6907], [-54.7413, -53.406], [-60.5322, -53.6735], [-65.8708, -54.3178], [-71.2906, -53.9225], [-75.7435, -52.3147], [-76.4833, -52.0684]]}}, {"type": "Feature", "properties": {"name": "Sandwich/South China", "a": "SW", "b": "SC"}, "geometry": {"type": "LineString", "coordinates": [[-29.4885, -55.0334], [-29.817, -55.6835], [-30.3253, -56.1345], [-30.7434, -56.5699], [-30.0692, -57.5995], [-29.5634, -58.8167], [-29.598, -60.4347], [-27.6967, -60.6171]]}}, {"type": "Feature", "properties": {"name": "Sandwich/Antarctic", "a": "SW", "b": "AN"}, "geometry": {"type": "LineString", "coordinates": [[-27.6967, -60.6171], [-26.0709, -60.391]]}}, {"type": "Feature", "properties": {"name": "South China/Antarctic", "a": "SC", "b": "AN"}, "geometry": {"type": "LineString", "coordinates": [[-44.2259, -60.2425], [-39.093, -61.018], [-32.367, -60.4089]]}}, {"type": "Feature", "properties": {"name": "South China/Antarctic", "a": "SC", "b": "AN"}, "geometry": {"type": "LineString", "coordinates": [[-32.367, -60.4089], [-27.6967, -60.6171]]}}, {"type": "Feature", "properties": {"name": "Sandwich/South American", "a": "SW", "b": "SA"}, "geometry": {"type": "LineString", "coordinates": [[-26.0709, -60.391], [-24.1302, -57.4253], [-26.414, -55.4244], [-29.4885, -55.0334]]}}, {"type": "Feature", "properties": {"name": "Arabian/Indian", "a": "AR", "b": "IN"}, "geometry": {"type": "LineString", "coordinates": [[60.2148, 18.2397], [61.4919, 20.6443], [62.8772, 22.683], [65.0282, 24.3824]]}}, {"type": "Feature", "properties": {"name": "Indian/Arabian", "a": "IN", "b": "AR"}, "geometry": {"type": "LineString", "coordinates": [[60.2148, 18.2397], [59.6423, 15.2418], [57.9836, 14.5994], [56.2652, 14.6232]]}}, {"type": "Feature", "properties": {"name": "Somali/Arabian", "a": "SO", "b": "AR"}, "geometry": {"type": "LineString", "coordinates": [[56.2652, 14.6232], [55.6685, 14.7216], [55.0473, 14.7116], [54.4505, 14.621], [54.1926, 14.7096], [53.8625, 14.3509], [53.2113, 14.5379], [52.5469, 14.5972], [51.5698, 13.6673], [50.8416, 13.2794], [50.2524, 13.229], [49.5926, 13.1686], [49.0705, 12.8528], [48.4479, 12.7289], [47.9914, 12.5807], [47.5389, 12.3687], [46.9923, 12.403], [46.5108, 12.2019], [46.1097, 12.0581], [45.5218, 11.9829], [44.9132, 12.0116], [43.6495, 12.0127], [42.0332, 11.5772]]}}, {"type": "Feature", "properties": {"name": "African/Arabian", "a": "AF", "b": "AR"}, "geometry": {"type": "LineString", "coordinates": [[39.2978, 19.0298], [37.8253, 21.8434], [36.2422, 24.626], [34.8748, 26.8078], [34.7755, 29.4717], [34.9519, 30.0]]}}, {"type": "Feature", "properties": {"name": "Arabian/African", "a": "AR", "b": "AF"}, "geometry": {"type": "LineString", "coordinates": [[39.2978, 19.0298], [40.1716, 16.304], [40.614, 13.7417], [41.6487, 12.189], [42.0332, 11.5772]]}}, {"type": "Feature", "properties": {"name": "Aegean Sea/African", "a": "AS", "b": "AF"}, "geometry": {"type": "LineString", "coordinates": [[20.3001, 37.8039], [22.3752, 35.7424], [25.5767, 34.2487], [28.478, 35.1272], [29.7309, 35.4273]]}}, {"type": "Feature", "properties": {"name": "Anatolian/African", "a": "AT", "b": "AF"}, "geometry": {"type": "LineString", "coordinates": [[29.7309, 35.4273], [32.1719, 34.4871], [34.4998, 34.7855], [36.4134, 36.0232]]}}, {"type": "Feature", "properties": {"name": "Somali/African", "a": "SO", "b": "AF"}, "geometry": {"type": "LineString", "coordinates": [[42.0332, 11.5772], [40.1074, 9.44636], [38.4775, 7.44705], [36.6014, 5.48365], [34.2596, 5.36626], [31.7527, 5.09727], [31.0492, 2.64788], [29.8673, 0.060444], [28.9103, -3.13391], [29.5996, -6.09891], [32.1166, -8.1622], [34.0806, -10.4552], [34.4608, -13.8586], [35.1989, -16.8333], [33.943, -19.0194], [32.6356, -21.492], [30.2503, -22.2124], [27.9441, -23.9278], [27.9054, -26.1765], [27.1792, -28.6245], [28.3409, -29.8486]]}}, {"type": "Feature", "properties": {"name": "African/Somali", "a": "AF", "b": "SO"}, "geometry": {"type": "LineString", "coordinates": [[32.1252, -46.9975], [34.636, -42.9307], [35.0898, -42.1032]]}}, {"type": "Feature", "properties": {"name": "African/Somali", "a": "AF", "b": "SO"}, "geometry": {"type": "LineString", "coordinates": [[35.0898, -42.1032], [37.174, -37.8404], [34.2689, -34.7461], [30.3997, -31.8325], [28.3409, -29.8486]]}}, {"type": "Feature", "properties": {"name": "Panama/Caribbean", "a": "PM", "b": "CA"}, "geometry": {"type": "LineString", "coordinates": [[-76.684, 8.7313], [-77.4993, 10.0985], [-78.4272, 10.6388], [-79.4321, 10.4311], [-80.879, 10.0579]]}}, {"type": "Feature", "properties": {"name": "Panama/Caribbean", "a": "PM", "b": "CA"}, "geometry": {"type": "LineString", "coordinates": [[-80.879, 10.0579], [-82.0802, 9.43984], [-83.2085, 10.0526], [-84.7462, 10.5933], [-86.2479, 10.3882], [-86.648, 10.235]]}}, {"type": "Feature", "properties": {"name": "Nazca/Panama", "a": "NZ", "b": "PM"}, "geometry": {"type": "LineString", "coordinates": [[-78.6463, 7.33731], [-79.6576, 7.18385], [-80.2498, 7.13273]]}}, {"type": "Feature", "properties": {"name": "Nazca/Panama", "a": "NZ", "b": "PM"}, "geometry": {"type": "LineString", "coordinates": [[-80.2498, 7.13273], [-80.8937, 7.29417], [-81.5843, 7.03949], [-81.741, 7.06054]]}}, {"type": "Feature", "properties": {"name": "Nazca/Panama", "a": "NZ", "b": "PM"}, "geometry": {"type": "LineString", "coordinates": [[-81.741, 7.06054], [-82.2021, 7.04084], [-82.6857, 7.27797], [-82.8748, 7.36639]]}}, {"type": "Feature", "properties": {"name": "Cocos/Panama", "a": "CO", "b": "PM"}, "geometry": {"type": "LineString", "coordinates": [[-82.8748, 7.36639], [-83.8377, 8.18189], [-85.0438, 8.93723], [-86.4487, 9.9383], [-86.648, 10.235]]}}, {"type": "Feature", "properties": {"name": "North Andes/Nazca", "a": "ND", "b": "NZ"}, "geometry": {"type": "LineString", "coordinates": [[-78.6463, 7.33731], [-78.599, 6.94229], [-78.265, 6.50195], [-78.0504, 6.05273], [-78.008, 6.00453]]}}, {"type": "Feature", "properties": {"name": "Panama/North Andes", "a": "PM", "b": "ND"}, "geometry": {"type": "LineString", "coordinates": [[-78.6463, 7.33731], [-77.3309, 8.10457], [-76.684, 8.7313]]}}, {"type": "Feature", "properties": {"name": "Caribbean/North Andes", "a": "CA", "b": "ND"}, "geometry": {"type": "LineString", "coordinates": [[-76.684, 8.7313], [-76.4559, 10.3285], [-75.3703, 11.5948], [-74.0577, 12.3863], [-72.4282, 13.4097], [-70.6594, 13.3101]]}}, {"type": "Feature", "properties": {"name": "Caribbean/North Andes", "a": "CA", "b": "ND"}, "geometry": {"type": "LineString", "coordinates": [[-70.6594, 13.3101], [-69.3478, 12.1751], [-67.9613, 10.4995]]}}, {"type": "Feature", "properties": {"name": "North Andes/South American", "a": "ND", "b": "SA"}, "geometry": {"type": "LineString", "coordinates": [[-81.5989, -3.24451], [-79.8028, -2.64299], [-78.4366, -0.748094], [-78.0055, 0.147576]]}}, {"type": "Feature", "properties": {"name": "North Andes/South American", "a": "ND", "b": "SA"}, "geometry": {"type": "LineString", "coordinates": [[-78.0055, 0.147576], [-76.2537, 1.50607], [-74.8753, 2.79118], [-73.815, 3.8186], [-72.9202, 4.7408], [-72.1492, 5.78778], [-72.0499, 7.03006], [-72.2464, 7.81891], [-71.4557, 8.45276], [-70.5145, 9.01417], [-69.5106, 9.97637], [-68.5065, 10.5021], [-67.9613, 10.4995]]}}, {"type": "Feature", "properties": {"name": "Caribbean/South American", "a": "CA", "b": "SA"}, "geometry": {"type": "LineString", "coordinates": [[-67.9613, 10.4995], [-65.5257, 10.6153], [-63.8782, 10.5316]]}}]}